{
  "type": "FeatureCollection",
  "features": [
    {
      "type": "Feature",
      "properties": {
        "norad_id": 33860,
        "name": "IRIDIUM 33 DEB",
        "group": "iridium-33-debris",
        "lat": -52.79343882595697,
        "lon": 19.031824469308763,
        "alt_km": 672.0123937927292,
        "timestamp": "2025-12-20T11:30:28.760958+00:00",
        "meta_object_name": "IRIDIUM 33 DEB",
        "meta_object_id": "1997-051AD",
        "meta_epoch": "2025-12-20T03:52:13.321920",
        "meta_mean_motion": 14.67450361,
        "meta_eccentricity": 0.000653,
        "meta_inclination": 86.3822,
        "meta_ra_of_asc_node": 23.9529,
        "meta_arg_of_pericenter": 329.8946,
        "meta_mean_anomaly": 97.1869,
        "meta_ephemeris_type": 0,
        "meta_classification_type": "U",
        "meta_norad_cat_id": 33860,
        "meta_element_set_no": 999,
        "meta_rev_at_epoch": 88831,
        "meta_bstar": 0.00071152,
        "meta_mean_motion_dot": 4.049e-05,
        "meta_mean_motion_ddot": 0,
        "tle_line1": "1 33860U 97051AD  25354.16126530  .00004049  00000+0  71152-3 0  9990",
        "tle_line2": "2 33860  86.3822  23.9529 0006530 329.8946  97.1869 14.67450361888311"
      },
      "geometry": {
        "type": "Point",
        "coordinates": [
          19.031824469308763,
          -52.79343882595697
        ]
      }
    },
    {
      "type": "Feature",
      "properties": {
        "norad_id": 33862,
        "name": "IRIDIUM 33 DEB",
        "group": "iridium-33-debris",
        "lat": 41.29367071494593,
        "lon": 37.27997233726863,
        "alt_km": 622.0782612502899,
        "timestamp": "2025-12-20T11:30:28.760969+00:00",
        "meta_object_name": "IRIDIUM 33 DEB",
        "meta_object_id": "1997-051AF",
        "meta_epoch": "2025-12-20T01:36:41.237280",
        "meta_mean_motion": 14.69582079,
        "meta_eccentricity": 0.0052731,
        "meta_inclination": 86.4082,
        "meta_ra_of_asc_node": 34.2992,
        "meta_arg_of_pericenter": 44.6523,
        "meta_mean_anomaly": 336.7,
        "meta_ephemeris_type": 0,
        "meta_classification_type": "U",
        "meta_norad_cat_id": 33862,
        "meta_element_set_no": 999,
        "meta_rev_at_epoch": 88931,
        "meta_bstar": 0.00085474,
        "meta_mean_motion_dot": 5.209e-05,
        "meta_mean_motion_ddot": 0,
        "tle_line1": "1 33862U 97051AF  25354.06714395  .00005209  00000+0  85474-3 0  9994",
        "tle_line2": "2 33862  86.4082  34.2992 0052731  44.6523 336.7000 14.69582079889312"
      },
      "geometry": {
        "type": "Point",
        "coordinates": [
          37.27997233726863,
          41.29367071494593
        ]
      }
    },
    {
      "type": "Feature",
      "properties": {
        "norad_id": 33866,
        "name": "IRIDIUM 33 DEB",
        "group": "iridium-33-debris",
        "lat": -44.32223867949582,
        "lon": 86.13820565447043,
        "alt_km": 896.8863546959474,
        "timestamp": "2025-12-20T11:30:28.760981+00:00",
        "meta_object_name": "IRIDIUM 33 DEB",
        "meta_object_id": "1997-051AK",
        "meta_epoch": "2025-12-20T00:30:41.152032",
        "meta_mean_motion": 14.25295275,
        "meta_eccentricity": 0.0114975,
        "meta_inclination": 86.3001,
        "meta_ra_of_asc_node": 89.9552,
        "meta_arg_of_pericenter": 138.2993,
        "meta_mean_anomaly": 347.795,
        "meta_ephemeris_type": 0,
        "meta_classification_type": "U",
        "meta_norad_cat_id": 33866,
        "meta_element_set_no": 999,
        "meta_rev_at_epoch": 86914,
        "meta_bstar": 0.00039194,
        "meta_mean_motion_dot": 1.008e-05,
        "meta_mean_motion_ddot": 0,
        "tle_line1": "1 33866U 97051AK  25354.02130963  .00001008  00000+0  39194-3 0  9998",
        "tle_line2": "2 33866  86.3001  89.9552 0114975 138.2993 347.7950 14.25295275869141"
      },
      "geometry": {
        "type": "Point",
        "coordinates": [
          86.13820565447043,
          -44.32223867949582
        ]
      }
    },
    {
      "type": "Feature",
      "properties": {
        "norad_id": 33867,
        "name": "IRIDIUM 33 DEB",
        "group": "iridium-33-debris",
        "lat": -31.174208442192356,
        "lon": 168.24314659385936,
        "alt_km": 327.6367871735856,
        "timestamp": "2025-12-20T11:30:28.760992+00:00",
        "meta_object_name": "IRIDIUM 33 DEB",
        "meta_object_id": "1997-051AL",
        "meta_epoch": "2025-12-20T00:00:24.546240",
        "meta_mean_motion": 15.83320916,
        "meta_eccentricity": 0.0013572,
        "meta_inclination": 86.3644,
        "meta_ra_of_asc_node": 346.2932,
        "meta_arg_of_pericenter": 95.1198,
        "meta_mean_anomaly": 265.1629,
        "meta_ephemeris_type": 0,
        "meta_classification_type": "U",
        "meta_norad_cat_id": 33867,
        "meta_element_set_no": 999,
        "meta_rev_at_epoch": 89625,
        "meta_bstar": 0.0064207,
        "meta_mean_motion_dot": 0.01574163,
        "meta_mean_motion_ddot": 0,
        "tle_line1": "1 33867U 97051AL  25354.00028410  .01574163  00000+0  64207-2 0  9990",
        "tle_line2": "2 33867  86.3644 346.2932 0013572  95.1198 265.1629 15.83320916896259"
      },
      "geometry": {
        "type": "Point",
        "coordinates": [
          168.24314659385936,
          -31.174208442192356
        ]
      }
    },
    {
      "type": "Feature",
      "properties": {
        "norad_id": 33870,
        "name": "IRIDIUM 33 DEB",
        "group": "iridium-33-debris",
        "lat": -85.47801302284121,
        "lon": -71.76169288337738,
        "alt_km": 752.9869920739648,
        "timestamp": "2025-12-20T11:30:28.761003+00:00",
        "meta_object_name": "IRIDIUM 33 DEB",
        "meta_object_id": "1997-051AP",
        "meta_epoch": "2025-12-20T03:53:26.545056",
        "meta_mean_motion": 14.45886051,
        "meta_eccentricity": 0.0022249,
        "meta_inclination": 86.3743,
        "meta_ra_of_asc_node": 55.0796,
        "meta_arg_of_pericenter": 154.3397,
        "meta_mean_anomaly": 261.7163,
        "meta_ephemeris_type": 0,
        "meta_classification_type": "U",
        "meta_norad_cat_id": 33870,
        "meta_element_set_no": 999,
        "meta_rev_at_epoch": 88244,
        "meta_bstar": 0.00046885,
        "meta_mean_motion_dot": 1.69e-05,
        "meta_mean_motion_ddot": 0,
        "tle_line1": "1 33870U 97051AP  25354.16211279  .00001690  00000+0  46885-3 0  9990",
        "tle_line2": "2 33870  86.3743  55.0796 0022249 154.3397 261.7163 14.45886051882441"
      },
      "geometry": {
        "type": "Point",
        "coordinates": [
          -71.76169288337738,
          -85.47801302284121
        ]
      }
    },
    {
      "type": "Feature",
      "properties": {
        "norad_id": 33881,
        "name": "IRIDIUM 33 DEB",
        "group": "iridium-33-debris",
        "lat": 73.93630652334285,
        "lon": 116.05691624134069,
        "alt_km": 685.4161282021141,
        "timestamp": "2025-12-20T11:30:28.761014+00:00",
        "meta_object_name": "IRIDIUM 33 DEB",
        "meta_object_id": "1997-051BA",
        "meta_epoch": "2025-12-18T18:38:37.341312",
        "meta_mean_motion": 14.56678227,
        "meta_eccentricity": 0.00614608,
        "meta_inclination": 86.3861,
        "meta_ra_of_asc_node": 104.1184,
        "meta_arg_of_pericenter": 155.2089,
        "meta_mean_anomaly": 356.6087,
        "meta_ephemeris_type": 0,
        "meta_classification_type": "U",
        "meta_norad_cat_id": 33881,
        "meta_element_set_no": 999,
        "meta_rev_at_epoch": 87588,
        "meta_bstar": 0.0015458281,
        "meta_mean_motion_dot": 7.103e-05,
        "meta_mean_motion_ddot": 0,
        "tle_line1": "1 33881U 97051BA  25352.77682108  .00007103  00000+0  15458-2 0  9996",
        "tle_line2": "2 33881  86.3861 104.1184 0061460 155.2089 356.6087 14.56678227875882"
      },
      "geometry": {
        "type": "Point",
        "coordinates": [
          116.05691624134069,
          73.93630652334285
        ]
      }
    },
    {
      "type": "Feature",
      "properties": {
        "norad_id": 33884,
        "name": "IRIDIUM 33 DEB",
        "group": "iridium-33-debris",
        "lat": -61.853839201266275,
        "lon": -166.8588170457174,
        "alt_km": 640.2953357711694,
        "timestamp": "2025-12-20T11:30:28.761025+00:00",
        "meta_object_name": "IRIDIUM 33 DEB",
        "meta_object_id": "1997-051BD",
        "meta_epoch": "2025-12-20T00:47:16.842912",
        "meta_mean_motion": 14.77561987,
        "meta_eccentricity": 0.0009184,
        "meta_inclination": 86.369,
        "meta_ra_of_asc_node": 6.526,
        "meta_arg_of_pericenter": 295.3474,
        "meta_mean_anomaly": 92.3856,
        "meta_ephemeris_type": 0,
        "meta_classification_type": "U",
        "meta_norad_cat_id": 33884,
        "meta_element_set_no": 999,
        "meta_rev_at_epoch": 88955,
        "meta_bstar": 0.00092659,
        "meta_mean_motion_dot": 6.644e-05,
        "meta_mean_motion_ddot": 0,
        "tle_line1": "1 33884U 97051BD  25354.03283383  .00006644  00000+0  92659-3 0  9990",
        "tle_line2": "2 33884  86.3690   6.5260 0009184 295.3474  92.3856 14.77561987889558"
      },
      "geometry": {
        "type": "Point",
        "coordinates": [
          -166.8588170457174,
          -61.853839201266275
        ]
      }
    }
  ]
}